[{"OBJECT_NAME":"STARLINK-3394","OBJECT_ID":"2022-005Q","EPOCH":"2026-03-09T21:11:35.197728","MEAN_MOTION":15.08841259,"ECCENTRICITY":0.00013467,"INCLINATION":53.2169,"RA_OF_ASC_NODE":288.2551,"ARG_OF_PERICENTER":89.718,"MEAN_ANOMALY":270.3966,"EPHEMERIS_TYPE":0,"CLASSIFICATION_TYPE":"U","NORAD_CAT_ID":51118,"ELEMENT_SET_NO":999,"REV_AT_EPOCH":22890,"BSTAR":3.2003302e-5,"MEAN_MOTION_DOT":2.21e-6,"MEAN_MOTION_DDOT":0},{"OBJECT_NAME":"LEMUR-2-NEUROSPICY","OBJECT_ID":"2025-061E","EPOCH":"2026-03-09T21:29:47.005152","MEAN_MOTION":15.13370729,"ECCENTRICITY":0.00155025,"INCLINATION":97.5545,"RA_OF_ASC_NODE":45.3302,"ARG_OF_PERICENTER":239.5457,"MEAN_ANOMALY":120.4243,"EPHEMERIS_TYPE":0,"CLASSIFICATION_TYPE":"U","NORAD_CAT_ID":63355,"ELEMENT_SET_NO":999,"REV_AT_EPOCH":5259,"BSTAR":0.00032487858,"MEAN_MOTION_DOT":5.745e-5,"MEAN_MOTION_DDOT":0}]
